[{"OBJECT_NAME":"STARLINK-34533","OBJECT_ID":"2025-142V","EPOCH":"2026-03-09T23:20:59.104320","MEAN_MOTION":14.9831918,"ECCENTRICITY":0.00029794,"INCLINATION":70.0006,"RA_OF_ASC_NODE":313.7262,"ARG_OF_PERICENTER":274.2508,"MEAN_ANOMALY":85.8311,"EPHEMERIS_TYPE":0,"CLASSIFICATION_TYPE":"U","NORAD_CAT_ID":64715,"ELEMENT_SET_NO":999,"REV_AT_EPOCH":3950,"BSTAR":0.00061409259,"MEAN_MOTION_DOT":7.24e-5,"MEAN_MOTION_DDOT":0},{"OBJECT_NAME":"OBJECT F","OBJECT_ID":"2025-026F","EPOCH":"2026-03-09T16:35:22.568352","MEAN_MOTION":14.96835273,"ECCENTRICITY":0.001234,"INCLINATION":81.996,"RA_OF_ASC_NODE":175.2789,"ARG_OF_PERICENTER":38.1083,"MEAN_ANOMALY":322.1008,"EPHEMERIS_TYPE":0,"CLASSIFICATION_TYPE":"U","NORAD_CAT_ID":63330,"ELEMENT_SET_NO":999,"REV_AT_EPOCH":5316,"BSTAR":0.00045702,"MEAN_MOTION_DOT":5.266e-5,"MEAN_MOTION_DDOT":0}]
